STARLINK-2461           
1 48428U 21040A   26068.52355379 -.00000247  00000+0  37803-5 0  9993
2 48428  53.1634 179.5041 0001422  95.7277 264.3886 15.30208541266654
HAWK-11A                
1 62382U 24247F   26068.51231358  .00009457  00000+0  34106-3 0  9991
2 62382  44.9941 114.3328 0005466 327.3713  32.6832 15.28849427 67741
